[{"OBJECT_NAME":"YAOGAN-30 10C","OBJECT_ID":"2021-055D","EPOCH":"2026-03-09T22:27:53.002368","MEAN_MOTION":15.02142069,"ECCENTRICITY":0.0003131,"INCLINATION":34.9969,"RA_OF_ASC_NODE":36.2181,"ARG_OF_PERICENTER":356.3915,"MEAN_ANOMALY":3.677,"EPHEMERIS_TYPE":0,"CLASSIFICATION_TYPE":"U","NORAD_CAT_ID":48863,"ELEMENT_SET_NO":999,"REV_AT_EPOCH":25795,"BSTAR":0.00033693874,"MEAN_MOTION_DOT":4.496e-5,"MEAN_MOTION_DDOT":0},{"OBJECT_NAME":"STARLINK-5100","OBJECT_ID":"2023-015AY","EPOCH":"2026-03-09T01:24:26.349120","MEAN_MOTION":15.02646487,"ECCENTRICITY":0.00020274,"INCLINATION":43.0053,"RA_OF_ASC_NODE":316.8774,"ARG_OF_PERICENTER":283.8127,"MEAN_ANOMALY":76.249,"EPHEMERIS_TYPE":0,"CLASSIFICATION_TYPE":"U","NORAD_CAT_ID":55495,"ELEMENT_SET_NO":999,"REV_AT_EPOCH":17080,"BSTAR":-0.0018406992,"MEAN_MOTION_DOT":-0.00025054,"MEAN_MOTION_DDOT":0}]
